[{"OBJECT_NAME":"STARLINK-3835","OBJECT_ID":"2022-049AB","EPOCH":"2026-03-09T22:37:47.727264","MEAN_MOTION":15.0883786,"ECCENTRICITY":0.00014517,"INCLINATION":53.218,"RA_OF_ASC_NODE":48.223,"ARG_OF_PERICENTER":85.3165,"MEAN_ANOMALY":274.7993,"EPHEMERIS_TYPE":0,"CLASSIFICATION_TYPE":"U","NORAD_CAT_ID":52476,"ELEMENT_SET_NO":999,"REV_AT_EPOCH":21366,"BSTAR":2.543137e-5,"MEAN_MOTION_DOT":1.17e-6,"MEAN_MOTION_DDOT":0},{"OBJECT_NAME":"CZ-2D DEB","OBJECT_ID":"2017-060C","EPOCH":"2026-03-09T12:36:22.356864","MEAN_MOTION":15.07716497,"ECCENTRICITY":0.0018685,"INCLINATION":98.2453,"RA_OF_ASC_NODE":267.9231,"ARG_OF_PERICENTER":71.2095,"MEAN_ANOMALY":289.1156,"EPHEMERIS_TYPE":0,"CLASSIFICATION_TYPE":"U","NORAD_CAT_ID":44610,"ELEMENT_SET_NO":999,"REV_AT_EPOCH":45422,"BSTAR":0.00057216024,"MEAN_MOTION_DOT":8.702e-5,"MEAN_MOTION_DDOT":0}]
